{
  "norad_id": 65126,
  "name": "GEESAT-4 08",
  "history": [
    {
      "epoch": "2026-03-27T22:48:15.554592Z",
      "apogee_km": 631.7242294110729,
      "perigee_km": 602.6519381758308,
      "latitude_deg": -1.1014600613929515e-05,
      "longitude_deg": -24.220050711702534,
      "height_km": 603.4251165280481,
      "semi_major_axis_km": 6995.325083793452,
      "eccentricity": 0.00207798,
      "inclination_deg": 49.9572,
      "raan_deg": 143.2224,
      "arg_perigee_deg": 10.3858,
      "mean_anomaly_deg": 349.7505,
      "mean_motion_rev_day": 14.83853104
    }
  ]
}