{"fetched_at":"2026-03-29T02:12:04Z","count":15717,"tles":[{"name":"GEESAT-4 08","line1":"1 65126U 25170H   26086.95018003  .00002185  00000+0  28718-3 0  9997","line2":"2 65126  49.9572 143.2224 0020779  10.3858 349.7505 14.83853104 35004","category":"Other"}]}